{
  "links" : {
    "next" : "https://api.nasa.gov/neo/rest/v1/feed?start_date=2007-11-16&end_date=2007-11-16&detailed=true&api_key=t0TVs3DtDT2H8Oy2Zy8m2eVrNsAVKAexjcZXUckd",
    "prev" : "https://api.nasa.gov/neo/rest/v1/feed?start_date=2007-11-14&end_date=2007-11-14&detailed=true&api_key=t0TVs3DtDT2H8Oy2Zy8m2eVrNsAVKAexjcZXUckd",
    "self" : "https://api.nasa.gov/neo/rest/v1/feed?start_date=2007-11-15&end_date=2007-11-15&detailed=true&api_key=t0TVs3DtDT2H8Oy2Zy8m2eVrNsAVKAexjcZXUckd"
  },
  "element_count" : 10,
  "near_earth_objects" : {
    "2007-11-15" : [ {
      "links" : {
        "self" : "https://api.nasa.gov/neo/rest/v1/neo/2469737?api_key=t0TVs3DtDT2H8Oy2Zy8m2eVrNsAVKAexjcZXUckd"
      },
      "neo_reference_id" : "2469737",
      "name" : "469737 (2005 NW44)",
      "nasa_jpl_url" : "http://ssd.jpl.nasa.gov/sbdb.cgi?sstr=2469737",
      "absolute_magnitude_h" : 20.4,
      "estimated_diameter" : {
        "kilometers" : {
          "estimated_diameter_min" : 0.2210828104,
          "estimated_diameter_max" : 0.4943561926
        },
        "meters" : {
          "estimated_diameter_min" : 221.0828103591,
          "estimated_diameter_max" : 494.3561926196
        },
        "miles" : {
          "estimated_diameter_min" : 0.137374447,
          "estimated_diameter_max" : 0.3071786018
        },
        "feet" : {
          "estimated_diameter_min" : 725.3373275385,
          "estimated_diameter_max" : 1621.9035709942
        }
      },
      "is_potentially_hazardous_asteroid" : false,
      "close_approach_data" : [ {
        "close_approach_date" : "2007-11-15",
        "epoch_date_close_approach" : 1195113600000,
        "relative_velocity" : {
          "kilometers_per_second" : "16.5078427597",
          "kilometers_per_hour" : "59428.2339348678",
          "miles_per_hour" : "36926.3934691405"
        },
        "miss_distance" : {
          "astronomical" : "0.4941501114",
          "lunar" : "192.224395752",
          "kilometers" : "73923800",
          "miles" : "45934124"
        },
        "orbiting_body" : "Earth"
      } ],
      "orbital_data" : {
        "orbit_id" : "56",
        "orbit_determination_date" : "2017-04-06 09:19:15",
        "orbit_uncertainty" : "0",
        "minimum_orbit_intersection" : ".0539712",
        "jupiter_tisserand_invariant" : "7.350",
        "epoch_osculation" : "2458000.5",
        "eccentricity" : ".4833444866273818",
        "semi_major_axis" : ".7793443512152165",
        "inclination" : "6.057246557704326",
        "ascending_node_longitude" : "114.4423845256922",
        "orbital_period" : "251.3000151466841",
        "perihelion_distance" : ".4026525558711477",
        "perihelion_argument" : ".7495086959431972",
        "aphelion_distance" : "1.156036146559285",
        "perihelion_time" : "2457958.897327115537",
        "mean_anomaly" : "59.5979360751912",
        "mean_motion" : "1.432550649827329",
        "equinox" : "J2000"
      }
    } ]
  }
}